NORAD_CAT_ID,OBJECT_NAME,OBJECT_TYPE,EPOCH,MEAN_MOTION,ECCENTRICITY,INCLINATION,RA_OF_ASC_NODE,ARG_OF_PERICENTER,MEAN_ANOMALY,BSTAR,MEAN_MOTION_DOT,MEAN_MOTION_DDOT,TLE_LINE0,TLE_LINE1,TLE_LINE2,SEMIMAJOR_AXIS,PERIOD,APOGEE,PERIGEE,DECAYED
53702.0,STARLINK-4724,PAYLOAD,2023-01-19 03:25:00,15.08883259,0.0001193999999999,53.216,331.8191,68.6277,291.4842,0.0013737,0.00021668,0.0,0 STARLINK-4724,1 53702U 22107C   23019.14237205  .00021668  00000-0  13737-2 0  9994,2 53702  53.2160 331.8191 0001194  68.6277 291.4842 15.08883259 21375,6917.7480000000005,95.435,540.439,538.7869999999999,0.0
53702.0,STARLINK-4724,PAYLOAD,2023-01-19 06:35:46,15.08888212,0.0001163,53.2161,331.2246,66.3686,293.7428,0.0018055,0.00028601,0.0,0 STARLINK-4724,1 53702U 22107C   23019.27484877  .00028601  00000-0  18055-2 0  9999,2 53702  53.2161 331.2246 0001163  66.3686 293.7428 15.08888212 22174,6917.733,95.435,540.403,538.793,0.0
53702.0,STARLINK-4724,PAYLOAD,2023-01-20 03:15:48,15.08838793,0.0001284999999999,53.2165,327.3585,100.3331,259.7807,0.0019809,0.00031378,0.0,0 STARLINK-4724,1 53702U 22107C   23020.13598308  .00031378  00000-0  19809-2 0  9994,2 53702  53.2165 327.3585 0001285 100.3331 259.7807 15.08838793 21521,6917.884,95.438,540.638,538.86,0.0
53702.0,STARLINK-4724,PAYLOAD,2023-01-20 20:45:04,15.08834533,0.0001639,53.2164,324.0879,100.8316,259.286,0.001292,0.00020331,0.0,0 STARLINK-4724,1 53702U 22107C   23020.86463231  .00020331  00000-0  12920-2 0  9994,2 53702  53.2164 324.0879 0001639 100.8316 259.2860 15.08834533 21635,6917.897,95.438,540.896,538.628,0.0
53702.0,STARLINK-4724,PAYLOAD,2023-01-21 06:17:22,15.08864226,0.0001095999999999,53.217,322.3043,89.2638,270.8479,0.0025954,0.00041287,0.0,0 STARLINK-4724,1 53702U 22107C   23021.26206997  .00041287  00000-0  25954-2 0  9997,2 53702  53.2170 322.3043 0001096  89.2638 270.8479 15.08864226 21693,6917.806,95.436,540.43,538.913,0.0
53702.0,STARLINK-4724,PAYLOAD,2023-01-22 02:57:23,15.08873516,0.0001991,53.2173,318.4374,80.5468,279.575,0.0016853999999999,0.00026662,0.0,0 STARLINK-4724,1 53702U 22107C   23022.12318737  .00026662  00000-0  16854-2 0  9998,2 53702  53.2173 318.4374 0001991  80.5468 279.5750 15.08873516 21823,6917.778,95.435,541.02,538.266,0.0
53702.0,STARLINK-4724,PAYLOAD,2023-01-22 12:29:42,15.0883823,0.0001966,53.2172,316.655,86.8141,273.3076,0.00025643,3.795e-05,0.0,0 STARLINK-4724,1 53702U 22107C   23022.52062819  .00003795  00000-0  25643-3 0  9998,2 53702  53.2172 316.6550 0001966  86.8141 273.3076 15.08838230 21880,6917.886,95.438,541.111,538.391,0.0
53702.0,STARLINK-4724,PAYLOAD,2023-01-24 04:14:20,15.08858541,0.0001165,53.2154,309.2207,84.5447,275.5678,0.0020055,0.0003179,0.0,0 STARLINK-4724,1 53702U 22107C   23024.17662811  .00031790  00000-0  20055-2 0  9996,2 53702  53.2154 309.2207 0001165  84.5447 275.5678 15.08858541 22130,6917.8240000000005,95.436,540.495,538.883,0.0
53702.0,STARLINK-4724,PAYLOAD,2023-01-25 00:54:21,15.08852677,0.0001406999999999,53.2158,305.355,74.7498,285.365,0.0013474,0.00021228,0.0,0 STARLINK-4724,1 53702U 22107C   23025.03775231  .00021228  00000-0  13474-2 0  9995,2 53702  53.2158 305.3550 0001407  74.7498 285.3650 15.08852677 22265,6917.842,95.437,540.68,538.7330000000001,0.0
53702.0,STARLINK-4724,PAYLOAD,2023-01-25 12:02:03,15.08851158,9.78e-05,53.2157,303.2743,76.0318,284.0783,0.00070487,0.00010951,0.0,0 STARLINK-4724,1 53702U 22107C   23025.50143018  .00010951  00000-0  70487-3 0  9998,2 53702  53.2157 303.2743 0000978  76.0318 284.0783 15.08851158 22337,6917.846,95.437,540.388,539.035,0.0
53702.0,STARLINK-4724,PAYLOAD,2023-01-26 00:45:08,15.08853142,0.0001505,53.2167,300.894,87.8791,272.2374,0.00068123,0.00010574,0.0,0 STARLINK-4724,1 53702U 22107C   23026.03135037  .00010574  00000-0  68123-3 0  9994,2 53702  53.2167 300.8940 0001505  87.8791 272.2374 15.08853142 23197,6917.84,95.437,540.746,538.664,0.0
53702.0,STARLINK-4724,PAYLOAD,2023-01-27 00:35:55,15.08849609,0.0001467,53.2154,296.4339,72.1699,287.9453,0.0005805,8.965e-05,0.0,0 STARLINK-4724,1 53702U 22107C   23027.02495179  .00008965  00000-0  58050-3 0  9999,2 53702  53.2154 296.4339 0001467  72.1699 287.9453 15.08849609 22560,6917.851,95.437,540.731,538.701,0.0
53702.0,STARLINK-4724,PAYLOAD,2023-01-27 03:46:42,15.08856204,0.0001493,53.2155,295.8386,71.9564,288.1591,0.00086044,0.00013438,0.0,0 STARLINK-4724,1 53702U 22107C   23027.15743063  .00013438  00000-0  86044-3 0  9996,2 53702  53.2155 295.8386 0001493  71.9564 288.1591 15.08856204 23367,6917.831,95.437,540.729,538.663,0.0
53702.0,STARLINK-4724,PAYLOAD,2023-01-27 21:15:56,15.08838844,0.0001418,53.2161,292.5664,88.7264,271.3891,0.00079954,0.00012459,0.0,0 STARLINK-4724,1 53702U 22107C   23027.88607544  .00012459  00000-0  79954-3 0  9993,2 53702  53.2161 292.5664 0001418  88.7264 271.3891 15.08838844 23476,6917.884,95.438,540.73,538.768,0.0
53702.0,STARLINK-4724,PAYLOAD,2023-01-28 02:02:06,15.08844998,0.0001365,53.2155,291.675,78.3137,281.8008,0.001107,0.00017376,0.0,0 STARLINK-4724,1 53702U 22107C   23028.08479602  .00017376  00000-0  11070-2 0  9995,2 53702  53.2155 291.6750 0001365  78.3137 281.8008 15.08844998 22720,6917.865,95.437,540.674,538.786,0.0
53702.0,STARLINK-4724,PAYLOAD,2023-01-28 21:06:44,15.0883975,0.0001372,53.2159,288.1093,83.9908,276.124,0.00013555,1.87e-05,0.0,0 STARLINK-4724,1 53702U 22107C   23028.87967678  .00001870  00000-0  13555-3 0  9990,2 53702  53.2159 288.1093 0001372  83.9908 276.1240 15.08839750 22849,6917.881,95.438,540.695,538.797,0.0
53702.0,STARLINK-4724,PAYLOAD,2023-01-29 03:28:16,15.088469,0.0001311,53.215,286.9175,82.91,277.2041,0.00053027,8.163e-05,0.0,0 STARLINK-4724,1 53702U 22107C   23029.14463407  .00008163  00000-0  53027-3 0  9992,2 53702  53.2150 286.9175 0001311  82.9100 277.2041 15.08846900 22883,6917.859,95.437,540.631,538.817,0.0
53702.0,STARLINK-4724,PAYLOAD,2023-01-29 20:57:31,15.08838306,0.0001488,53.2152,283.6456,75.4703,284.6454,0.00012908,1.767e-05,0.0,0 STARLINK-4724,1 53702U 22107C   23029.87327841  .00001767  00000-0  12908-3 0  9999,2 53702  53.2152 283.6456 0001488  75.4703 284.6454 15.08838306 23772,6917.886,95.438,540.78,538.721,0.0
53702.0,STARLINK-4724,PAYLOAD,2023-01-30 01:43:40,15.08840126,0.0001273,53.2154,282.7535,84.9563,275.1574,0.00010437,1.374e-05,0.0,0 STARLINK-4724,1 53702U 22107C   23030.07199744  .00001374  00000-0  10437-3 0  9991,2 53702  53.2154 282.7535 0001273  84.9563 275.1574 15.08840126 23022,6917.88,95.438,540.626,538.864,0.0
53702.0,STARLINK-4724,PAYLOAD,2023-01-30 22:23:41,15.08843952,0.0001324,53.2143,278.8881,90.5657,269.5486,0.00018526,2.662e-05,0.0,0 STARLINK-4724,1 53702U 22107C   23030.93311679  .00002662  00000-0  18526-3 0  9997,2 53702  53.2143 278.8881 0001324  90.5657 269.5486 15.08843952 23933,6917.868,95.437,540.649,538.817,0.0
53702.0,STARLINK-4724,PAYLOAD,2023-01-31 01:34:27,15.08848126,0.0001244,53.2147,278.2933,92.3886,267.7249,0.00028176,4.2e-05,0.0,0 STARLINK-4724,1 53702U 22107C   23031.06559511  .00004200  00000-0  28176-3 0  9993,2 53702  53.2147 278.2933 0001244  92.3886 267.7249 15.08848126 23951,6917.856,95.437,540.581,538.86,0.0
53702.0,STARLINK-4724,PAYLOAD,2023-01-31 15:52:55,15.0884256,0.0001389,53.2143,275.6184,90.1767,269.9384,0.00017731,2.535e-05,0.0,0 STARLINK-4724,1 53702U 22107C   23031.66175815  .00002535  00000-0  17731-3 0  9994,2 53702  53.2143 275.6184 0001389  90.1767 269.9384 15.08842560 23264,6917.873,95.437,540.698,538.777,0.0
53702.0,STARLINK-4724,PAYLOAD,2023-01-31 22:14:28,15.08843903,0.0001366,53.2143,274.429,89.8018,270.3131,0.00018522,2.661e-05,0.0,0 STARLINK-4724,1 53702U 22107C   23031.92671759  .00002661  00000-0  18522-3 0  9990,2 53702  53.2143 274.4290 0001366  89.8018 270.3131 15.08843903 24087,6917.868,95.437,540.678,538.788,0.0
53702.0,STARLINK-4724,PAYLOAD,2023-02-01 01:25:14,15.08844996,0.0001388,53.214,273.8342,89.5478,270.5673,0.00019047,2.745e-05,0.0,0 STARLINK-4724,1 53702U 22107C   23032.05919745  .00002745  00000-0  19047-3 0  9991,2 53702  53.2140 273.8342 0001388  89.5478 270.5673 15.08844996 24105,6917.865,95.437,540.69,538.77,0.0
53702.0,STARLINK-4724,PAYLOAD,2023-02-02 01:16:01,15.08841121,0.0001591,53.2132,269.3738,89.9098,270.2076,0.00012753,1.742e-05,0.0,0 STARLINK-4724,1 53702U 22107C   23033.05279994  .00001742  00000-0  12753-3 0  9990,2 53702  53.2132 269.3738 0001591  89.9098 270.2076 15.08841121 23473,6917.877,95.437,540.843,538.641,0.0
53702.0,STARLINK-4724,PAYLOAD,2023-02-03 01:06:48,15.08844915,0.000148,53.213,264.9128,88.8743,271.2418,0.00014701,2.053e-05,0.0,0 STARLINK-4724,1 53702U 22107C   23034.04639704  .00002053  00000-0  14701-3 0  9990,2 53702  53.2130 264.9128 0001480  88.8743 271.2418 15.08844915 24406,6917.865,95.437,540.754,538.707,0.0
53702.0,STARLINK-4724,PAYLOAD,2023-02-03 15:25:17,15.08837876,0.0001395,53.2123,262.2356,89.7091,270.4061,3.4845e-05,2.67e-06,0.0,0 STARLINK-4724,1 53702U 22107C   23034.64256121  .00000267  00000-0  34845-4 0  9991,2 53702  53.2123 262.2356 0001395  89.7091 270.4061 15.08837876 23719,6917.887,95.438,540.717,538.787,0.0
53702.0,STARLINK-4724,PAYLOAD,2023-02-04 21:37:36,15.08849798,0.0001182,53.214,256.5861,77.601,282.5115,0.00016732,2.377e-05,0.0,0 STARLINK-4724,1 53702U 22107C   23035.90111460  .00002377  00000-0  16732-3 0  9995,2 53702  53.2140 256.5861 0001182  77.6010 282.5115 15.08849798 23907,6917.85,95.437,540.533,538.898,0.0
53702.0,STARLINK-4724,PAYLOAD,2023-02-05 00:48:22,15.08852278,0.0001212,53.2141,255.9914,76.6136,283.4991,0.00026971,4.009e-05,0.0,0 STARLINK-4724,1 53702U 22107C   23036.03359417  .00004009  00000-0  26971-3 0  9996,2 53702  53.2141 255.9914 0001212  76.6136 283.4991 15.08852278 24700,6917.843,95.437,540.546,538.869,0.0
53702.0,STARLINK-4724,PAYLOAD,2023-02-05 19:52:47,15.09150072,0.0001208,53.214,252.4219,78.9194,281.1934,0.0053414,0.00086497,0.0,0 STARLINK-4724,1 53702U 22107C   23036.82832338  .00086497  00000-0  53414-2 0  9993,2 53702  53.2140 252.4219 0001208  78.9194 281.1934 15.09150072 24046,6916.933,95.418,539.633,537.962,0.0
